[{"OBJECT_NAME":"STARLINK-35175","OBJECT_ID":"2025-225V","EPOCH":"2026-03-09T12:40:38.991648","MEAN_MOTION":15.30192886,"ECCENTRICITY":9.806e-5,"INCLINATION":53.16,"RA_OF_ASC_NODE":166.409,"ARG_OF_PERICENTER":69.0864,"MEAN_ANOMALY":291.0242,"EPHEMERIS_TYPE":0,"CLASSIFICATION_TYPE":"U","NORAD_CAT_ID":65929,"ELEMENT_SET_NO":999,"REV_AT_EPOCH":2438,"BSTAR":0.0009673652,"MEAN_MOTION_DOT":0.00028395,"MEAN_MOTION_DDOT":0},{"OBJECT_NAME":"SPACEMOBILE-005 DEB","OBJECT_ID":"2024-163K","EPOCH":"2026-03-09T07:33:15.902496","MEAN_MOTION":15.31481997,"ECCENTRICITY":0.00072885,"INCLINATION":52.9762,"RA_OF_ASC_NODE":31.7924,"ARG_OF_PERICENTER":175.8731,"MEAN_ANOMALY":184.2329,"EPHEMERIS_TYPE":0,"CLASSIFICATION_TYPE":"U","NORAD_CAT_ID":62373,"ELEMENT_SET_NO":999,"REV_AT_EPOCH":8280,"BSTAR":0.00063853778,"MEAN_MOTION_DOT":0.00019381,"MEAN_MOTION_DDOT":0}]
